{
  "type": "FeatureCollection",
  "features": [
    {
      "type": "Feature",
      "properties": {
        "field_id": "IL_001",
        "state": "IL",
        "region": "central",
        "area_est_acres": 6.0
      },
      "geometry": {
        "type": "Polygon",
        "coordinates": [
          [
            [
              -89.39778147901919,
              40.633710742833685
            ],
            [
              -89.39787292590596,
              40.63363301297993
            ],
            [
              -89.39777088315692,
              40.63371974931661
            ],
            [
              -89.39786152424287,
              40.633642704393566
            ],
            [
              -89.39790320756524,
              40.63360727356955
            ],
            [
              -89.39789790559406,
              40.63361178024504
            ],
            [
              -89.3977202516781,
              40.63376278607361
            ],
            [
              -89.39778147901919,
              40.633710742833685
            ]
          ]
        ]
      }
    },
    {
      "type": "Feature",
      "properties": {
        "field_id": "IL_002",
        "state": "IL",
        "region": "central",
        "area_est_acres": 7.0
      },
      "geometry": {
        "type": "Polygon",
        "coordinates": [
          [
            [
              -89.38253563240629,
              40.643919712454654
            ],
            [
              -89.38289558640714,
              40.64361375155392
            ],
            [
              -89.38259901812417,
              40.64386583459445
            ],
            [
              -89.38256554578628,
              40.64389428608166
            ],
            [
              -89.38256158602326,
              40.64389765188022
            ],
            [
              -89.38255248672122,
              40.64390538628696
            ],
            [
              -89.38253563240629,
              40.643919712454654
            ]
          ]
        ]
      }
    },
    {
      "type": "Feature",
      "properties": {
        "field_id": "IL_003",
        "state": "IL",
        "region": "urbana",
        "area_est_acres": 8.0
      },
      "geometry": {
        "type": "Polygon",
        "coordinates": [
          [
            [
              -88.20652162241285,
              40.116961620949084
            ],
            [
              -88.2064054713219,
              40.11706034937639
            ],
            [
              -88.20638468997018,
              40.11707801352535
            ],
            [
              -88.20628942239995,
              40.11715899096004
            ],
            [
              -88.20658079181885,
              40.11691132695398
            ],
            [
              -88.206604400951,
              40.11689125919166
            ],
            [
              -88.20656631972496,
              40.1169236282338
            ],
            [
              -88.20632930559579,
              40.11712509024359
            ],
            [
              -88.2062027156988,
              40.117232691656035
            ],
            [
              -88.20628661874515,
              40.11716137406662
            ],
            [
              -88.20652162241285,
              40.116961620949084
            ]
          ]
        ]
      }
    },
    {
      "type": "Feature",
      "properties": {
        "field_id": "IL_004",
        "state": "IL",
        "region": "urbana",
        "area_est_acres": 9.0
      },
      "geometry": {
        "type": "Polygon",
        "coordinates": [
          [
            [
              -88.19138088701555,
              40.12708124603678
            ],
            [
              -88.1915789138045,
              40.12691292326617
            ],
            [
              -88.19135203354249,
              40.12710577148889
            ],
            [
              -88.19130794936555,
              40.127143243039285
            ],
            [
              -88.19118771453438,
              40.12724544264578
            ],
            [
              -88.19138995549199,
              40.12707353783182
            ],
            [
              -88.191538502746,
              40.12694727266591
            ],
            [
              -88.19137573933664,
              40.127085621563864
            ],
            [
              -88.19138088701555,
              40.12708124603678
            ]
          ]
        ]
      }
    },
    {
      "type": "Feature",
      "properties": {
        "field_id": "IL_005",
        "state": "IL",
        "region": "champaign",
        "area_est_acres": 10.0
      },
      "geometry": {
        "type": "Polygon",
        "coordinates": [
          [
            [
              -88.99254061409891,
              40.441585478015924
            ],
            [
              -88.99284163335243,
              40.441329611650445
            ],
            [
              -88.9925396858657,
              40.44158626701417
            ],
            [
              -88.99283405543808,
              40.44133605287764
            ],
            [
              -88.9927911266581,
              40.441372542340616
            ],
            [
              -88.99265140190892,
              40.44149130837743
            ],
            [
              -88.99269333720996,
              40.44145566337154
            ],
            [
              -88.99279653911361,
              40.44136794175344
            ],
            [
              -88.99275560130549,
              40.44140273889034
            ],
            [
              -88.99254061409891,
              40.441585478015924
            ]
          ]
        ]
      }
    },
    {
      "type": "Feature",
      "properties": {
        "field_id": "IL_006",
        "state": "IL",
        "region": "champaign",
        "area_est_acres": 11.0
      },
      "geometry": {
        "type": "Polygon",
        "coordinates": [
          [
            [
              -88.97784521096378,
              40.4513265706808
            ],
            [
              -88.9773557484789,
              40.45174261379294
            ],
            [
              -88.9773725888858,
              40.451728299447076
            ],
            [
              -88.97781846970605,
              40.45134930074986
            ],
            [
              -88.97738377071926,
              40.45171879488864
            ],
            [
              -88.97752299342335,
              40.45160045559016
            ],
            [
              -88.97777195987067,
              40.45138883410994
            ],
            [
              -88.9774803489569,
              40.45163670338664
            ],
            [
              -88.97784521096378,
              40.4513265706808
            ]
          ]
        ]
      }
    }
  ]
}