{
"type": "FeatureCollection",
"name": "illinois_sample_10",
"crs": { "type": "name", "properties": { "name": "urn:ogc:def:crs:OGC:1.3:CRS84" } },
"features": [
{ "type": "Feature", "properties": { "field_id": "IL_001", "region": "illinois", "crop_name": "corn", "area_acres": 77.22, "state_fips": 17 }, "geometry": { "type": "Polygon", "coordinates": [ [ [ -89.01451197029165, 40.538646917123309 ], [ -89.007874072278256, 40.538280231647342 ], [ -89.007384770019769, 40.543257391247707 ], [ -89.01402312919366, 40.543624103546797 ], [ -89.01451197029165, 40.538646917123309 ] ] ] } },
{ "type": "Feature", "properties": { "field_id": "IL_002", "region": "illinois", "crop_name": "soybeans", "area_acres": 28.26, "state_fips": 17 }, "geometry": { "type": "Polygon", "coordinates": [ [ [ -88.493690689652766, 40.467307065136779 ], [ -88.489680785539193, 40.467068793875711 ], [ -88.489363215625616, 40.470078327598031 ], [ -88.493373287882619, 40.470316609370876 ], [ -88.493690689652766, 40.467307065136779 ] ] ] } },
{ "type": "Feature", "properties": { "field_id": "IL_003", "region": "illinois", "crop_name": "corn", "area_acres": 66.09, "state_fips": 17 }, "geometry": { "type": "Polygon", "coordinates": [ [ [ -89.553165134448179, 41.033165954843682 ], [ -89.546978574601937, 41.032852710008711 ], [ -89.546557817435257, 41.037460965894034 ], [ -89.552744778184916, 41.037774232322768 ], [ -89.553165134448179, 41.033165954843682 ] ] ] } },
{ "type": "Feature", "properties": { "field_id": "IL_004", "region": "illinois", "crop_name": "soybeans", "area_acres": 97.44, "state_fips": 17 }, "geometry": { "type": "Polygon", "coordinates": [ [ [ -87.984281728325143, 39.953245781238941 ], [ -87.976892245458785, 39.952773417686004 ], [ -87.976266862913661, 39.958357805240858 ], [ -87.983656916295658, 39.958830206757952 ], [ -87.984281728325143, 39.953245781238941 ] ] ] } },
{ "type": "Feature", "properties": { "field_id": "IL_005", "region": "illinois", "crop_name": "corn", "area_acres": 30.46, "state_fips": 17 }, "geometry": { "type": "Polygon", "coordinates": [ [ [ -88.965071910924678, 40.970742314906623 ], [ -88.960877967632413, 40.97051037309506 ], [ -88.960566739610329, 40.973636958286207 ], [ -88.964760866976448, 40.973868910921489 ], [ -88.965071910924678, 40.970742314906623 ] ] ] } },
{ "type": "Feature", "properties": { "field_id": "IL_006", "region": "illinois", "crop_name": "soybeans", "area_acres": 59.6, "state_fips": 17 }, "geometry": { "type": "Polygon", "coordinates": [ [ [ -88.541939326444421, 39.482795303807862 ], [ -88.536194831560124, 39.482451602084645 ], [ -88.535742709993428, 39.486820476159195 ], [ -88.541487549988119, 39.48716419913 ], [ -88.541939326444421, 39.482795303807862 ] ] ] } },
{ "type": "Feature", "properties": { "field_id": "IL_007", "region": "illinois", "crop_name": "corn", "area_acres": 67.01, "state_fips": 17 }, "geometry": { "type": "Polygon", "coordinates": [ [ [ -87.513644283717909, 40.479871307529457 ], [ -87.507473918500409, 40.479456577850272 ], [ -87.506921006122013, 40.484086814629073 ], [ -87.513091768783426, 40.484501572471615 ], [ -87.513644283717909, 40.479871307529457 ] ] ] } },
{ "type": "Feature", "properties": { "field_id": "IL_008", "region": "illinois", "crop_name": "soybeans", "area_acres": 46.14, "state_fips": 17 }, "geometry": { "type": "Polygon", "coordinates": [ [ [ -88.048271406892283, 41.482432590130102 ], [ -88.043075630277386, 41.482109818834161 ], [ -88.042639557862117, 41.485957071180721 ], [ -88.047835616562878, 41.486279861352571 ], [ -88.048271406892283, 41.482432590130102 ] ] ] } },
{ "type": "Feature", "properties": { "field_id": "IL_009", "region": "illinois", "crop_name": "corn", "area_acres": 31.97, "state_fips": 17 }, "geometry": { "type": "Polygon", "coordinates": [ [ [ -89.50510774074705, 39.524163462220386 ], [ -89.500894920672948, 39.523944200442259 ], [ -89.500606353557515, 39.527146394642287 ], [ -89.504819359518422, 39.527365666369995 ], [ -89.50510774074705, 39.524163462220386 ] ] ] } },
{ "type": "Feature", "properties": { "field_id": "IL_010", "region": "illinois", "crop_name": "soybeans", "area_acres": 18.95, "state_fips": 17 }, "geometry": { "type": "Polygon", "coordinates": [ [ [ -86.999076200399841, 40.00697746987337 ], [ -86.995818227563547, 40.006743700563298 ], [ -86.995508605332532, 40.009204038716128 ], [ -86.998766688855596, 40.009437816319192 ], [ -86.999076200399841, 40.00697746987337 ] ] ] } }
]
}