{
"type": "FeatureCollection",
"name": "sample_5_fields_il_ia_mi",
"crs": { "type": "name", "properties": { "name": "urn:ogc:def:crs:OGC:1.3:CRS84" } },
"features": [
{ "type": "Feature", "properties": { "field_id": "OSM_48310447", "state": "US-IA", "crop_name": "farmland", "source": "OpenStreetMap/Overpass", "area_acres": 27.486833059633813 }, "geometry": { "type": "Polygon", "coordinates": [ [ [ -91.5829647, 40.9727877 ], [ -91.5798748, 40.9727715 ], [ -91.5798869, 40.9745181 ], [ -91.5786223, 40.9743865 ], [ -91.5786231, 40.9743213 ], [ -91.5786431, 40.9727093 ], [ -91.5786716, 40.9704728 ], [ -91.5830061, 40.9705538 ], [ -91.5829647, 40.9727877 ] ] ] } },
{ "type": "Feature", "properties": { "field_id": "OSM_56132577", "state": "US-IA", "crop_name": "orchard", "source": "OpenStreetMap/Overpass", "area_acres": 7.6281542631875947 }, "geometry": { "type": "Polygon", "coordinates": [ [ [ -93.7546852, 41.6439684 ], [ -93.7546634, 41.6456737 ], [ -93.7544569, 41.6456988 ], [ -93.7542368, 41.645718 ], [ -93.7541515, 41.6457269 ], [ -93.7539675, 41.6457362 ], [ -93.7537126, 41.6457286 ], [ -93.7535319, 41.6457198 ], [ -93.7532009, 41.6457256 ], [ -93.7529038, 41.6457142 ], [ -93.7528367, 41.6457018 ], [ -93.7527754, 41.6456811 ], [ -93.752765, 41.6439606 ], [ -93.7533361, 41.6439656 ], [ -93.7539597, 41.6439642 ], [ -93.7546852, 41.6439684 ] ] ] } },
{ "type": "Feature", "properties": { "field_id": "OSM_21854396", "state": "US-IL", "crop_name": "farmland", "source": "OpenStreetMap/Overpass", "area_acres": 75.966807308951047 }, "geometry": { "type": "Polygon", "coordinates": [ [ [ -89.1765633, 39.9683059 ], [ -89.1720007, 39.9683359 ], [ -89.1719807, 39.9664149 ], [ -89.1719272, 39.9612642 ], [ -89.1765654, 39.961289 ], [ -89.1765633, 39.9683059 ] ] ] } },
{ "type": "Feature", "properties": { "field_id": "OSM_25473478", "state": "US-IL", "crop_name": "farmland", "source": "OpenStreetMap/Overpass", "area_acres": 58.530302755872931 }, "geometry": { "type": "Polygon", "coordinates": [ [ [ -88.2390599, 41.8445739 ], [ -88.2386468, 41.8446338 ], [ -88.2381909, 41.8446338 ], [ -88.2373165, 41.844482 ], [ -88.236367, 41.8442662 ], [ -88.23649, 41.8434093 ], [ -88.2363975, 41.8433958 ], [ -88.2371568, 41.837509 ], [ -88.237696, 41.8375424 ], [ -88.2377815, 41.8367994 ], [ -88.2372517, 41.8367559 ], [ -88.2375218, 41.8348648 ], [ -88.2398579, 41.8350498 ], [ -88.2399583, 41.8351117 ], [ -88.2400533, 41.8352178 ], [ -88.2401893, 41.8355434 ], [ -88.2402199, 41.8358129 ], [ -88.2401685, 41.8363074 ], [ -88.2392796, 41.8362363 ], [ -88.2391545, 41.8370488 ], [ -88.2400541, 41.8371274 ], [ -88.2390599, 41.8445739 ] ] ] } },
{ "type": "Feature", "properties": { "field_id": "OSM_25441319", "state": "US-MI", "crop_name": "farmland", "source": "OpenStreetMap/Overpass", "area_acres": 8.1915621555437852 }, "geometry": { "type": "Polygon", "coordinates": [ [ [ -83.9206131, 42.0072714 ], [ -83.9205271, 42.005495 ], [ -83.9204546, 42.0047901 ], [ -83.9190937, 42.004882 ], [ -83.9190522, 42.007282 ], [ -83.9206131, 42.0072714 ] ] ] } }
]
}
