{
"type": "FeatureCollection",
"name": "sample_2_fields",
"crs": { "type": "name", "properties": { "name": "urn:ogc:def:crs:OGC:1.3:CRS84" } },
"features": [
{ "type": "Feature", "properties": { "field_id": "OSM_1428284928", "region": "corn_belt", "crop_name": "farmland", "source": "OpenStreetMap/Overpass", "area_acres": 230.31604674302554 }, "geometry": { "type": "Polygon", "coordinates": [ [ [ -93.8906407, 40.7015043 ], [ -93.8902277, 40.7012277 ], [ -93.8894445, 40.7001053 ], [ -93.8887954, 40.6994993 ], [ -93.8882589, 40.6986981 ], [ -93.8878352, 40.6976854 ], [ -93.88533, 40.6949197 ], [ -93.8842839, 40.6941835 ], [ -93.883962, 40.693427 ], [ -93.8838172, 40.6927844 ], [ -93.8839406, 40.6924142 ], [ -93.8843215, 40.6923247 ], [ -93.8850564, 40.6924671 ], [ -93.8850993, 40.6931138 ], [ -93.8854855, 40.6934026 ], [ -93.8858128, 40.6935165 ], [ -93.8858557, 40.6938825 ], [ -93.886199, 40.69409 ], [ -93.8865155, 40.6941307 ], [ -93.8869447, 40.694033 ], [ -93.887701, 40.6936426 ], [ -93.8878727, 40.6936466 ], [ -93.8884682, 40.6939802 ], [ -93.8888249, 40.6942445 ], [ -93.888503, 40.6938947 ], [ -93.8882133, 40.6936731 ], [ -93.8881892, 40.69349 ], [ -93.8883957, 40.6932928 ], [ -93.8888517, 40.6929206 ], [ -93.8890663, 40.6928555 ], [ -93.8897207, 40.6929755 ], [ -93.89052, 40.6927803 ], [ -93.8910189, 40.6925525 ], [ -93.8913032, 40.6924813 ], [ -93.8917673, 40.692522 ], [ -93.8921562, 40.6928189 ], [ -93.8923734, 40.6930569 ], [ -93.8925022, 40.6934046 ], [ -93.8926712, 40.6936609 ], [ -93.8924754, 40.6940615 ], [ -93.8925773, 40.6943706 ], [ -93.8929313, 40.6945211 ], [ -93.893669, 40.6945313 ], [ -93.8940391, 40.6947611 ], [ -93.8948116, 40.6956498 ], [ -93.8955089, 40.6961663 ], [ -93.8957262, 40.6962782 ], [ -93.8961259, 40.6963758 ], [ -93.8975152, 40.6964022 ], [ -93.8987383, 40.6966137 ], [ -93.8995564, 40.6967744 ], [ -93.9004201, 40.6968598 ], [ -93.9010853, 40.6968923 ], [ -93.9012837, 40.6970062 ], [ -93.9016968, 40.6974576 ], [ -93.9020401, 40.6980352 ], [ -93.9021635, 40.6983768 ], [ -93.9019476, 40.698604 ], [ -93.9017665, 40.6987306 ], [ -93.9017183, 40.6989441 ], [ -93.9017826, 40.6992959 ], [ -93.9019382, 40.6996091 ], [ -93.9018524, 40.6998185 ], [ -93.9018524, 40.7000199 ], [ -93.9019167, 40.7003086 ], [ -93.9017639, 40.7004957 ], [ -93.9016244, 40.7005831 ], [ -93.9015144, 40.7009247 ], [ -93.9010182, 40.7013396 ], [ -93.9007875, 40.7014799 ], [ -93.9004013, 40.7018398 ], [ -93.9002135, 40.7019293 ], [ -93.9002618, 40.7021753 ], [ -93.9001411, 40.7026755 ], [ -93.8999426, 40.7027935 ], [ -93.8994277, 40.7028504 ], [ -93.8989717, 40.7028626 ], [ -93.8963646, 40.7028585 ], [ -93.8958415, 40.7028931 ], [ -93.8946104, 40.7027182 ], [ -93.8944629, 40.7026166 ], [ -93.8944615, 40.702403 ], [ -93.8944924, 40.702096 ], [ -93.8944334, 40.7019201 ], [ -93.8940673, 40.7013619 ], [ -93.8939466, 40.7012084 ], [ -93.8935764, 40.7009868 ], [ -93.8935094, 40.7010722 ], [ -93.8919845, 40.7005791 ], [ -93.8913327, 40.7003279 ], [ -93.8910377, 40.7001957 ], [ -93.8907668, 40.70021 ], [ -93.8905683, 40.7002964 ], [ -93.8905294, 40.7004377 ], [ -93.8907306, 40.7010142 ], [ -93.8907722, 40.7014423 ], [ -93.8907225, 40.7015073 ], [ -93.8906407, 40.7015043 ] ] ] } },
{ "type": "Feature", "properties": { "field_id": "OSM_998713335", "region": "corn_belt", "crop_name": "farmland", "source": "OpenStreetMap/Overpass", "area_acres": 229.96621536556535 }, "geometry": { "type": "Polygon", "coordinates": [ [ [ -93.4614276, 40.8407766 ], [ -93.4614166, 40.8551199 ], [ -93.4708285, 40.8550871 ], [ -93.4708354, 40.8545435 ], [ -93.4700053, 40.8537102 ], [ -93.4695183, 40.8537102 ], [ -93.4695879, 40.8532278 ], [ -93.4702604, 40.8530787 ], [ -93.470643, 40.8524823 ], [ -93.470759, 40.8508861 ], [ -93.4690081, 40.851807 ], [ -93.4690545, 40.8512545 ], [ -93.4693676, 40.8512369 ], [ -93.4707474, 40.8505002 ], [ -93.4707474, 40.8486233 ], [ -93.4698198, 40.8484566 ], [ -93.4695415, 40.8483426 ], [ -93.4689038, 40.8483777 ], [ -93.4686951, 40.8481058 ], [ -93.4690429, 40.847904 ], [ -93.4708273, 40.847904 ], [ -93.4708056, 40.8470487 ], [ -93.4676426, 40.8470226 ], [ -93.4671067, 40.8471141 ], [ -93.4669339, 40.8474018 ], [ -93.4669166, 40.8480817 ], [ -93.4658795, 40.8480686 ], [ -93.4659659, 40.8424069 ], [ -93.4662252, 40.8418708 ], [ -93.4659612, 40.8418531 ], [ -93.4658619, 40.8416028 ], [ -93.4658619, 40.8413941 ], [ -93.4656744, 40.8413357 ], [ -93.4656302, 40.841027 ], [ -93.4657516, 40.8409352 ], [ -93.4659832, 40.8408851 ], [ -93.4659832, 40.8407933 ], [ -93.4614276, 40.8407766 ] ] ] } }
]
}
